<?xml version="1.0" encoding="UTF-8"?>
<ndm xmlns:xsi="http://www.w3.org/2001/XMLSchema-instance" xsi:noNamespaceSchemaLocation="https://sanaregistry.org/r/ndmxml_unqualified/ndmxml-2.0.0-master-2.0.xsd">
<omm id="CCSDS_OMM_VERS" version="2.0">
<header><CREATION_DATE/><ORIGINATOR/></header><body><segment><metadata><OBJECT_NAME>ORBCOMM FM24</OBJECT_NAME><OBJECT_ID>1998-053D</OBJECT_ID><CENTER_NAME>EARTH</CENTER_NAME><REF_FRAME>TEME</REF_FRAME><TIME_SYSTEM>UTC</TIME_SYSTEM><MEAN_ELEMENT_THEORY>SGP4</MEAN_ELEMENT_THEORY></metadata><data><meanElements><EPOCH>2026-01-22T03:45:36.097920</EPOCH><MEAN_MOTION>14.38784089</MEAN_MOTION><ECCENTRICITY>.00028822</ECCENTRICITY><INCLINATION>45.0085</INCLINATION><RA_OF_ASC_NODE>310.3571</RA_OF_ASC_NODE><ARG_OF_PERICENTER>282.5725</ARG_OF_PERICENTER><MEAN_ANOMALY>77.4802</MEAN_ANOMALY></meanElements><tleParameters><EPHEMERIS_TYPE>0</EPHEMERIS_TYPE><CLASSIFICATION_TYPE>U</CLASSIFICATION_TYPE><NORAD_CAT_ID>25478</NORAD_CAT_ID><ELEMENT_SET_NO>999</ELEMENT_SET_NO><REV_AT_EPOCH>42897</REV_AT_EPOCH><BSTAR>.84222664E-3</BSTAR><MEAN_MOTION_DOT>.247E-4</MEAN_MOTION_DOT><MEAN_MOTION_DDOT>0</MEAN_MOTION_DDOT></tleParameters></data></segment></body></omm>
<omm id="CCSDS_OMM_VERS" version="2.0">
<header><CREATION_DATE/><ORIGINATOR/></header><body><segment><metadata><OBJECT_NAME>ORBCOMM FM25</OBJECT_NAME><OBJECT_ID>1998-053E</OBJECT_ID><CENTER_NAME>EARTH</CENTER_NAME><REF_FRAME>TEME</REF_FRAME><TIME_SYSTEM>UTC</TIME_SYSTEM><MEAN_ELEMENT_THEORY>SGP4</MEAN_ELEMENT_THEORY></metadata><data><meanElements><EPOCH>2026-01-22T04:50:55.478400</EPOCH><MEAN_MOTION>14.38753729</MEAN_MOTION><ECCENTRICITY>.00052452</ECCENTRICITY><INCLINATION>45.0075</INCLINATION><RA_OF_ASC_NODE>308.4472</RA_OF_ASC_NODE><ARG_OF_PERICENTER>280.0572</ARG_OF_PERICENTER><MEAN_ANOMALY>79.9684</MEAN_ANOMALY></meanElements><tleParameters><EPHEMERIS_TYPE>0</EPHEMERIS_TYPE><CLASSIFICATION_TYPE>U</CLASSIFICATION_TYPE><NORAD_CAT_ID>25479</NORAD_CAT_ID><ELEMENT_SET_NO>999</ELEMENT_SET_NO><REV_AT_EPOCH>42927</REV_AT_EPOCH><BSTAR>.92579997E-3</BSTAR><MEAN_MOTION_DOT>.2728E-4</MEAN_MOTION_DOT><MEAN_MOTION_DDOT>0</MEAN_MOTION_DDOT></tleParameters></data></segment></body></omm>
<omm id="CCSDS_OMM_VERS" version="2.0">
<header><CREATION_DATE/><ORIGINATOR/></header><body><segment><metadata><OBJECT_NAME>ORBCOMM FM26</OBJECT_NAME><OBJECT_ID>1998-053F</OBJECT_ID><CENTER_NAME>EARTH</CENTER_NAME><REF_FRAME>TEME</REF_FRAME><TIME_SYSTEM>UTC</TIME_SYSTEM><MEAN_ELEMENT_THEORY>SGP4</MEAN_ELEMENT_THEORY></metadata><data><meanElements><EPOCH>2026-01-22T03:44:01.064832</EPOCH><MEAN_MOTION>14.37704369</MEAN_MOTION><ECCENTRICITY>.00072976</ECCENTRICITY><INCLINATION>45.0070</INCLINATION><RA_OF_ASC_NODE>306.7814</RA_OF_ASC_NODE><ARG_OF_PERICENTER>290.1115</ARG_OF_PERICENTER><MEAN_ANOMALY>69.8948</MEAN_ANOMALY></meanElements><tleParameters><EPHEMERIS_TYPE>0</EPHEMERIS_TYPE><CLASSIFICATION_TYPE>U</CLASSIFICATION_TYPE><NORAD_CAT_ID>25480</NORAD_CAT_ID><ELEMENT_SET_NO>999</ELEMENT_SET_NO><REV_AT_EPOCH>42915</REV_AT_EPOCH><BSTAR>.74450879E-3</BSTAR><MEAN_MOTION_DOT>.2118E-4</MEAN_MOTION_DOT><MEAN_MOTION_DDOT>0</MEAN_MOTION_DDOT></tleParameters></data></segment></body></omm>
<omm id="CCSDS_OMM_VERS" version="2.0">
<header><CREATION_DATE/><ORIGINATOR/></header><body><segment><metadata><OBJECT_NAME>ORBCOMM FM27</OBJECT_NAME><OBJECT_ID>1998-053G</OBJECT_ID><CENTER_NAME>EARTH</CENTER_NAME><REF_FRAME>TEME</REF_FRAME><TIME_SYSTEM>UTC</TIME_SYSTEM><MEAN_ELEMENT_THEORY>SGP4</MEAN_ELEMENT_THEORY></metadata><data><meanElements><EPOCH>2026-01-22T04:25:53.696928</EPOCH><MEAN_MOTION>14.38791151</MEAN_MOTION><ECCENTRICITY>.00019566</ECCENTRICITY><INCLINATION>45.0058</INCLINATION><RA_OF_ASC_NODE>308.6468</RA_OF_ASC_NODE><ARG_OF_PERICENTER>312.6874</ARG_OF_PERICENTER><MEAN_ANOMALY>47.3810</MEAN_ANOMALY></meanElements><tleParameters><EPHEMERIS_TYPE>0</EPHEMERIS_TYPE><CLASSIFICATION_TYPE>U</CLASSIFICATION_TYPE><NORAD_CAT_ID>25481</NORAD_CAT_ID><ELEMENT_SET_NO>999</ELEMENT_SET_NO><REV_AT_EPOCH>42920</REV_AT_EPOCH><BSTAR>.91366094E-3</BSTAR><MEAN_MOTION_DOT>.2692E-4</MEAN_MOTION_DOT><MEAN_MOTION_DDOT>0</MEAN_MOTION_DDOT></tleParameters></data></segment></body></omm>
<omm id="CCSDS_OMM_VERS" version="2.0">
<header><CREATION_DATE/><ORIGINATOR/></header><body><segment><metadata><OBJECT_NAME>ORBCOMM FM28</OBJECT_NAME><OBJECT_ID>1998-053H</OBJECT_ID><CENTER_NAME>EARTH</CENTER_NAME><REF_FRAME>TEME</REF_FRAME><TIME_SYSTEM>UTC</TIME_SYSTEM><MEAN_ELEMENT_THEORY>SGP4</MEAN_ELEMENT_THEORY></metadata><data><meanElements><EPOCH>2026-01-21T23:46:12.980928</EPOCH><MEAN_MOTION>14.38900799</MEAN_MOTION><ECCENTRICITY>.00046412</ECCENTRICITY><INCLINATION>45.0033</INCLINATION><RA_OF_ASC_NODE>246.8097</RA_OF_ASC_NODE><ARG_OF_PERICENTER>326.7069</ARG_OF_PERICENTER><MEAN_ANOMALY>33.3487</MEAN_ANOMALY></meanElements><tleParameters><EPHEMERIS_TYPE>0</EPHEMERIS_TYPE><CLASSIFICATION_TYPE>U</CLASSIFICATION_TYPE><NORAD_CAT_ID>25482</NORAD_CAT_ID><ELEMENT_SET_NO>999</ELEMENT_SET_NO><REV_AT_EPOCH>42986</REV_AT_EPOCH><BSTAR>.8063021E-3</BSTAR><MEAN_MOTION_DOT>.2365E-4</MEAN_MOTION_DOT><MEAN_MOTION_DDOT>0</MEAN_MOTION_DDOT></tleParameters></data></segment></body></omm>
<omm id="CCSDS_OMM_VERS" version="2.0">
<header><CREATION_DATE/><ORIGINATOR/></header><body><segment><metadata><OBJECT_NAME>ORBCOMM FM30</OBJECT_NAME><OBJECT_ID>1999-065A</OBJECT_ID><CENTER_NAME>EARTH</CENTER_NAME><REF_FRAME>TEME</REF_FRAME><TIME_SYSTEM>UTC</TIME_SYSTEM><MEAN_ELEMENT_THEORY>SGP4</MEAN_ELEMENT_THEORY></metadata><data><meanElements><EPOCH>2026-01-22T06:13:46.866144</EPOCH><MEAN_MOTION>14.37861890</MEAN_MOTION><ECCENTRICITY>.0004766</ECCENTRICITY><INCLINATION>45.0307</INCLINATION><RA_OF_ASC_NODE>132.3473</RA_OF_ASC_NODE><ARG_OF_PERICENTER>25.2015</ARG_OF_PERICENTER><MEAN_ANOMALY>334.9066</MEAN_ANOMALY></meanElements><tleParameters><EPHEMERIS_TYPE>0</EPHEMERIS_TYPE><CLASSIFICATION_TYPE>U</CLASSIFICATION_TYPE><NORAD_CAT_ID>25980</NORAD_CAT_ID><ELEMENT_SET_NO>999</ELEMENT_SET_NO><REV_AT_EPOCH>36597</REV_AT_EPOCH><BSTAR>.67024072E-3</BSTAR><MEAN_MOTION_DOT>.1898E-4</MEAN_MOTION_DOT><MEAN_MOTION_DDOT>0</MEAN_MOTION_DDOT></tleParameters></data></segment></body></omm>
<omm id="CCSDS_OMM_VERS" version="2.0">
<header><CREATION_DATE/><ORIGINATOR/></header><body><segment><metadata><OBJECT_NAME>ORBCOMM FM31</OBJECT_NAME><OBJECT_ID>1999-065B</OBJECT_ID><CENTER_NAME>EARTH</CENTER_NAME><REF_FRAME>TEME</REF_FRAME><TIME_SYSTEM>UTC</TIME_SYSTEM><MEAN_ELEMENT_THEORY>SGP4</MEAN_ELEMENT_THEORY></metadata><data><meanElements><EPOCH>2026-01-22T05:50:17.127456</EPOCH><MEAN_MOTION>14.37785813</MEAN_MOTION><ECCENTRICITY>.00022758</ECCENTRICITY><INCLINATION>45.0224</INCLINATION><RA_OF_ASC_NODE>125.8717</RA_OF_ASC_NODE><ARG_OF_PERICENTER>64.8103</ARG_OF_PERICENTER><MEAN_ANOMALY>295.2981</MEAN_ANOMALY></meanElements><tleParameters><EPHEMERIS_TYPE>0</EPHEMERIS_TYPE><CLASSIFICATION_TYPE>U</CLASSIFICATION_TYPE><NORAD_CAT_ID>25981</NORAD_CAT_ID><ELEMENT_SET_NO>999</ELEMENT_SET_NO><REV_AT_EPOCH>36552</REV_AT_EPOCH><BSTAR>.61977373E-3</BSTAR><MEAN_MOTION_DOT>.1742E-4</MEAN_MOTION_DOT><MEAN_MOTION_DDOT>0</MEAN_MOTION_DDOT></tleParameters></data></segment></body></omm>
<omm id="CCSDS_OMM_VERS" version="2.0">
<header><CREATION_DATE/><ORIGINATOR/></header><body><segment><metadata><OBJECT_NAME>ORBCOMM FM32</OBJECT_NAME><OBJECT_ID>1999-065C</OBJECT_ID><CENTER_NAME>EARTH</CENTER_NAME><REF_FRAME>TEME</REF_FRAME><TIME_SYSTEM>UTC</TIME_SYSTEM><MEAN_ELEMENT_THEORY>SGP4</MEAN_ELEMENT_THEORY></metadata><data><meanElements><EPOCH>2026-01-22T07:04:57.573984</EPOCH><MEAN_MOTION>14.36849914</MEAN_MOTION><ECCENTRICITY>.00046925</ECCENTRICITY><INCLINATION>45.0140</INCLINATION><RA_OF_ASC_NODE>143.6666</RA_OF_ASC_NODE><ARG_OF_PERICENTER>55.3229</ARG_OF_PERICENTER><MEAN_ANOMALY>304.8061</MEAN_ANOMALY></meanElements><tleParameters><EPHEMERIS_TYPE>0</EPHEMERIS_TYPE><CLASSIFICATION_TYPE>U</CLASSIFICATION_TYPE><NORAD_CAT_ID>25982</NORAD_CAT_ID><ELEMENT_SET_NO>999</ELEMENT_SET_NO><REV_AT_EPOCH>36610</REV_AT_EPOCH><BSTAR>.84159804E-3</BSTAR><MEAN_MOTION_DOT>.2369E-4</MEAN_MOTION_DOT><MEAN_MOTION_DDOT>0</MEAN_MOTION_DDOT></tleParameters></data></segment></body></omm>

</ndm>
