ORBCOMM FM24            
1 25478U 98053D   26022.15666780  .00002470  00000+0  84223-3 0  9996
2 25478  45.0085 310.3571 0002882 282.5725  77.4802 14.38784089428971
ORBCOMM FM25            
1 25479U 98053E   26022.20203100  .00002728  00000+0  92580-3 0  9997
2 25479  45.0075 308.4472 0005245 280.0572  79.9684 14.38753729429274
ORBCOMM FM26            
1 25480U 98053F   26022.15556788  .00002118  00000+0  74451-3 0  9996
2 25480  45.0070 306.7814 0007297 290.1115  69.8948 14.37704369429159
ORBCOMM FM27            
1 25481U 98053G   26022.18464927  .00002692  00000+0  91366-3 0  9994
2 25481  45.0058 308.6468 0001956 312.6874  47.3810 14.38791151429201
ORBCOMM FM28            
1 25482U 98053H   26021.99042802  .00002365  00000+0  80630-3 0  9996
2 25482  45.0033 246.8097 0004641 326.7069  33.3487 14.38900799429869
ORBCOMM FM30            
1 25980U 99065A   26022.25957021  .00001898  00000+0  67024-3 0  9993
2 25980  45.0307 132.3473 0004766  25.2015 334.9066 14.37861890365974
ORBCOMM FM31            
1 25981U 99065B   26022.24325379  .00001742  00000+0  61977-3 0  9997
2 25981  45.0224 125.8717 0002275  64.8103 295.2981 14.37785813365527
ORBCOMM FM32            
1 25982U 99065C   26022.29511081  .00002369  00000+0  84160-3 0  9995
2 25982  45.0140 143.6666 0004692  55.3229 304.8061 14.36849914366108
